{
    "links": {
        "self": "http://www.neowsapp.com/rest/v1/neo/3102709?api_key=iIulBulltgU6a56xZRHN4H3l9WmuAYTsLGpBGhQ2"
    },
    "id": "3102709",
    "neo_reference_id": "3102709",
    "name": "(2001 YN2)",
    "designation": "2001 YN2",
    "nasa_jpl_url": "http://ssd.jpl.nasa.gov/sbdb.cgi?sstr=3102709",
    "absolute_magnitude_h": 25.4,
    "estimated_diameter": {
        "kilometers": {
            "estimated_diameter_min": 0.022108281,
            "estimated_diameter_max": 0.0494356193
        },
        "meters": {
            "estimated_diameter_min": 22.1082810359,
            "estimated_diameter_max": 49.435619262
        },
        "miles": {
            "estimated_diameter_min": 0.0137374447,
            "estimated_diameter_max": 0.0307178602
        },
        "feet": {
            "estimated_diameter_min": 72.5337327539,
            "estimated_diameter_max": 162.1903570994
        }
    },
    "is_potentially_hazardous_asteroid": false,
    "close_approach_data": [
        {
            "close_approach_date": "2001-12-14",
            "close_approach_date_full": "2001-Dec-14 23:08",
            "epoch_date_close_approach": 1008371280000,
            "relative_velocity": {
                "kilometers_per_second": "19.0776292516",
                "kilometers_per_hour": "68679.4653055962",
                "miles_per_hour": "42674.7488728023"
            },
            "miss_distance": {
                "astronomical": "0.0092876874",
                "lunar": "3.6129103986",
                "kilometers": "1389418.252265838",
                "miles": "863344.4681430444"
            },
            "orbiting_body": "Moon"
        },
        {
            "close_approach_date": "2001-12-15",
            "close_approach_date_full": "2001-Dec-15 03:40",
            "epoch_date_close_approach": 1008387600000,
            "relative_velocity": {
                "kilometers_per_second": "18.8591045344",
                "kilometers_per_hour": "67892.7763239174",
                "miles_per_hour": "42185.9309330475"
            },
            "miss_distance": {
                "astronomical": "0.0089106901",
                "lunar": "3.4662584489",
                "kilometers": "1333020.259190087",
                "miles": "828300.3802617206"
            },
            "orbiting_body": "Earth"
        }
    ],
    "orbital_data": {
        "orbit_id": "13",
        "orbit_determination_date": "2017-04-06 09:15:40",
        "first_observation_date": "2001-12-18",
        "last_observation_date": "2002-01-08",
        "data_arc_in_days": 21,
        "observations_used": 36,
        "orbit_uncertainty": "8",
        "minimum_orbit_intersection": "3.07214E-5",
        "jupiter_tisserand_invariant": "3.045",
        "epoch_osculation": "2452268.5",
        "eccentricity": ".7152837530564765",
        "semi_major_axis": "2.507280005309978",
        "inclination": "1.628729702931391",
        "ascending_node_longitude": "82.60908716479733",
        "orbital_period": "1450.115794555424",
        "perihelion_distance": ".7138633531483944",
        "perihelion_argument": "289.8775991141003",
        "aphelion_distance": "4.300696657471561",
        "perihelion_time": "2452217.294031614257",
        "mean_anomaly": "12.71219076992332",
        "mean_motion": ".2482560367604082",
        "equinox": "J2000",
        "orbit_class": {
            "orbit_class_type": "APO",
            "orbit_class_description": "Near-Earth asteroid orbits which cross the Earth’s orbit similar to that of 1862 Apollo",
            "orbit_class_range": "a (semi-major axis) > 1.0 AU; q (perihelion) < 1.017 AU"
        }
    },
    "is_sentry_object": false
}